[{"OBJECT_NAME":"NVS-01 (IRNSS-1J)","OBJECT_ID":"2023-076A","EPOCH":"2026-03-28T22:14:50.538912","MEAN_MOTION":1.00269381,"ECCENTRICITY":0.00070515,"INCLINATION":2.3582,"RA_OF_ASC_NODE":247.7099,"ARG_OF_PERICENTER":52.8478,"MEAN_ANOMALY":348.9908,"EPHEMERIS_TYPE":0,"CLASSIFICATION_TYPE":"U","NORAD_CAT_ID":56759,"ELEMENT_SET_NO":999,"REV_AT_EPOCH":1031,"BSTAR":0,"MEAN_MOTION_DOT":-3.6e-6,"MEAN_MOTION_DDOT":0},{"OBJECT_NAME":"COSMOS 2569 (703K)","OBJECT_ID":"2023-114A","EPOCH":"2026-03-28T12:59:13.416000","MEAN_MOTION":2.13103807,"ECCENTRICITY":0.00129072,"INCLINATION":65.2574,"RA_OF_ASC_NODE":75.3385,"ARG_OF_PERICENTER":293.4527,"MEAN_ANOMALY":66.4203,"EPHEMERIS_TYPE":0,"CLASSIFICATION_TYPE":"U","NORAD_CAT_ID":57517,"ELEMENT_SET_NO":999,"REV_AT_EPOCH":2054,"BSTAR":0,"MEAN_MOTION_DOT":4.1e-7,"MEAN_MOTION_DDOT":0},{"OBJECT_NAME":"BEIDOU-3 M28 (C50)","OBJECT_ID":"2023-207A","EPOCH":"2026-03-28T05:14:45.000960","MEAN_MOTION":1.8622965,"ECCENTRICITY":0.00049821,"INCLINATION":55.6833,"RA_OF_ASC_NODE":65.0329,"ARG_OF_PERICENTER":311.8055,"MEAN_ANOMALY":48.1461,"EPHEMERIS_TYPE":0,"CLASSIFICATION_TYPE":"U","NORAD_CAT_ID":58654,"ELEMENT_SET_NO":999,"REV_AT_EPOCH":1533,"BSTAR":0,"MEAN_MOTION_DOT":-5.0e-8,"MEAN_MOTION_DDOT":0},{"OBJECT_NAME":"BEIDOU-3 M26 (C48)","OBJECT_ID":"2023-207B","EPOCH":"2026-03-28T13:16:20.957376","MEAN_MOTION":1.86229581,"ECCENTRICITY":0.0005599,"INCLINATION":55.6855,"RA_OF_ASC_NODE":65.0079,"ARG_OF_PERICENTER":296.0064,"MEAN_ANOMALY":63.9292,"EPHEMERIS_TYPE":0,"CLASSIFICATION_TYPE":"U","NORAD_CAT_ID":58655,"ELEMENT_SET_NO":999,"REV_AT_EPOCH":1532,"BSTAR":0,"MEAN_MOTION_DOT":-6.0e-8,"MEAN_MOTION_DDOT":0},{"OBJECT_NAME":"GSAT0225 (GALILEO 29)","OBJECT_ID":"2024-079A","EPOCH":"2026-03-28T01:49:00.365952","MEAN_MOTION":1.70474547,"ECCENTRICITY":0.00027404,"INCLINATION":55.0678,"RA_OF_ASC_NODE":103.3445,"ARG_OF_PERICENTER":270.8462,"MEAN_ANOMALY":214.737,"EPHEMERIS_TYPE":0,"CLASSIFICATION_TYPE":"U","NORAD_CAT_ID":59598,"ELEMENT_SET_NO":999,"REV_AT_EPOCH":1193,"BSTAR":0,"MEAN_MOTION_DOT":3.9e-7,"MEAN_MOTION_DDOT":0},{"OBJECT_NAME":"GSAT0227 (GALILEO 30)","OBJECT_ID":"2024-079C","EPOCH":"2026-03-25T16:59:50.260704","MEAN_MOTION":1.70474585,"ECCENTRICITY":6.165e-5,"INCLINATION":55.0598,"RA_OF_ASC_NODE":103.4096,"ARG_OF_PERICENTER":12.6919,"MEAN_ANOMALY":347.3562,"EPHEMERIS_TYPE":0,"CLASSIFICATION_TYPE":"U","NORAD_CAT_ID":59600,"ELEMENT_SET_NO":999,"REV_AT_EPOCH":1194,"BSTAR":0,"MEAN_MOTION_DOT":3.2e-7,"MEAN_MOTION_DDOT":0},{"OBJECT_NAME":"GSAT0226 (GALILEO 31)","OBJECT_ID":"2024-167B","EPOCH":"2026-03-27T12:58:24.631968","MEAN_MOTION":1.70474116,"ECCENTRICITY":0.0001564,"INCLINATION":55.2106,"RA_OF_ASC_NODE":223.5582,"ARG_OF_PERICENTER":156.5708,"MEAN_ANOMALY":194.8874,"EPHEMERIS_TYPE":0,"CLASSIFICATION_TYPE":"U","NORAD_CAT_ID":61183,"ELEMENT_SET_NO":999,"REV_AT_EPOCH":945,"BSTAR":0,"MEAN_MOTION_DOT":-1.2e-7,"MEAN_MOTION_DDOT":0},{"OBJECT_NAME":"BEIDOU-3 M25 (C47)","OBJECT_ID":"2024-168B","EPOCH":"2026-03-27T00:48:46.058688","MEAN_MOTION":1.86229867,"ECCENTRICITY":0.00037935,"INCLINATION":54.5461,"RA_OF_ASC_NODE":305.0968,"ARG_OF_PERICENTER":320.5769,"MEAN_ANOMALY":217.9271,"EPHEMERIS_TYPE":0,"CLASSIFICATION_TYPE":"U","NORAD_CAT_ID":61186,"ELEMENT_SET_NO":999,"REV_AT_EPOCH":1025,"BSTAR":0,"MEAN_MOTION_DOT":-3.3e-7,"MEAN_MOTION_DDOT":0},{"OBJECT_NAME":"BEIDOU-3 M27 (C49)","OBJECT_ID":"2024-168C","EPOCH":"2026-03-27T15:29:11.582880","MEAN_MOTION":1.86230021,"ECCENTRICITY":0.0002847,"INCLINATION":54.5409,"RA_OF_ASC_NODE":305.0587,"ARG_OF_PERICENTER":30.2437,"MEAN_ANOMALY":333.176,"EPHEMERIS_TYPE":0,"CLASSIFICATION_TYPE":"U","NORAD_CAT_ID":61187,"ELEMENT_SET_NO":999,"REV_AT_EPOCH":774,"BSTAR":0,"MEAN_MOTION_DOT":-3.5e-7,"MEAN_MOTION_DDOT":0},{"OBJECT_NAME":"GPS BIII-7  (PRN 01)","OBJECT_ID":"2024-242A","EPOCH":"2026-03-25T07:53:27.912192","MEAN_MOTION":2.00569753,"ECCENTRICITY":0.00163589,"INCLINATION":54.8829,"RA_OF_ASC_NODE":337.583,"ARG_OF_PERICENTER":358.994,"MEAN_ANOMALY":177.9462,"EPHEMERIS_TYPE":0,"CLASSIFICATION_TYPE":"U","NORAD_CAT_ID":62339,"ELEMENT_SET_NO":999,"REV_AT_EPOCH":957,"BSTAR":0,"MEAN_MOTION_DOT":-8.5e-7,"MEAN_MOTION_DDOT":0},{"OBJECT_NAME":"NVS-02 (IRNSS-1K)","OBJECT_ID":"2025-020A","EPOCH":"2026-03-28T15:45:34.261056","MEAN_MOTION":2.17784504,"ECCENTRICITY":0.7349659,"INCLINATION":20.8225,"RA_OF_ASC_NODE":288.7707,"ARG_OF_PERICENTER":95.8271,"MEAN_ANOMALY":343.7924,"EPHEMERIS_TYPE":0,"CLASSIFICATION_TYPE":"U","NORAD_CAT_ID":62850,"ELEMENT_SET_NO":999,"REV_AT_EPOCH":922,"BSTAR":0.0011478,"MEAN_MOTION_DOT":1.479e-5,"MEAN_MOTION_DDOT":0},{"OBJECT_NAME":"QZS-6 (QZSS/PRN 200)","OBJECT_ID":"2025-023A","EPOCH":"2026-03-28T22:03:38.737440","MEAN_MOTION":1.00270303,"ECCENTRICITY":0.00022812,"INCLINATION":0.0526,"RA_OF_ASC_NODE":69.2114,"ARG_OF_PERICENTER":295.9014,"MEAN_ANOMALY":242.6198,"EPHEMERIS_TYPE":0,"CLASSIFICATION_TYPE":"U","NORAD_CAT_ID":62876,"ELEMENT_SET_NO":999,"REV_AT_EPOCH":415,"BSTAR":0,"MEAN_MOTION_DOT":-2.52e-6,"MEAN_MOTION_DDOT":0},{"OBJECT_NAME":"COSMOS 2584 (704K)","OBJECT_ID":"2025-042A","EPOCH":"2026-03-27T23:00:36.984096","MEAN_MOTION":2.13103439,"ECCENTRICITY":0.00074322,"INCLINATION":65.039,"RA_OF_ASC_NODE":75.5619,"ARG_OF_PERICENTER":238.763,"MEAN_ANOMALY":121.1744,"EPHEMERIS_TYPE":0,"CLASSIFICATION_TYPE":"U","NORAD_CAT_ID":63130,"ELEMENT_SET_NO":999,"REV_AT_EPOCH":831,"BSTAR":0,"MEAN_MOTION_DOT":4.4e-7,"MEAN_MOTION_DDOT":0},{"OBJECT_NAME":"GPS BIII-8  (PRN 21)","OBJECT_ID":"2025-116A","EPOCH":"2026-03-28T19:32:01.199328","MEAN_MOTION":2.00551421,"ECCENTRICITY":0.00089667,"INCLINATION":55.1842,"RA_OF_ASC_NODE":34.3646,"ARG_OF_PERICENTER":330.8454,"MEAN_ANOMALY":26.7176,"EPHEMERIS_TYPE":0,"CLASSIFICATION_TYPE":"U","NORAD_CAT_ID":64202,"ELEMENT_SET_NO":999,"REV_AT_EPOCH":625,"BSTAR":0,"MEAN_MOTION_DOT":-8.0e-7,"MEAN_MOTION_DDOT":0},{"OBJECT_NAME":"COSMOS 2596 (708K)","OBJECT_ID":"2025-206B","EPOCH":"2026-03-27T14:45:45.838368","MEAN_MOTION":2.13100192,"ECCENTRICITY":0.0012287,"INCLINATION":64.6808,"RA_OF_ASC_NODE":317.8263,"ARG_OF_PERICENTER":316.8794,"MEAN_ANOMALY":256.7022,"EPHEMERIS_TYPE":0,"CLASSIFICATION_TYPE":"U","NORAD_CAT_ID":65590,"ELEMENT_SET_NO":999,"REV_AT_EPOCH":417,"BSTAR":0,"MEAN_MOTION_DOT":-3.1e-7,"MEAN_MOTION_DDOT":0},{"OBJECT_NAME":"GSAT0234 (GALILEO 34)","OBJECT_ID":"2025-302C","EPOCH":"2026-03-27T16:42:04.337856","MEAN_MOTION":1.70474528,"ECCENTRICITY":0.000383,"INCLINATION":54.283,"RA_OF_ASC_NODE":104.4494,"ARG_OF_PERICENTER":286.8102,"MEAN_ANOMALY":76.5044,"EPHEMERIS_TYPE":0,"CLASSIFICATION_TYPE":"U","NORAD_CAT_ID":67162,"ELEMENT_SET_NO":999,"REV_AT_EPOCH":179,"BSTAR":0,"MEAN_MOTION_DOT":3.6e-7,"MEAN_MOTION_DDOT":0},{"OBJECT_NAME":"GPS BIII-9  (PRN 20)","OBJECT_ID":"2026-017A","EPOCH":"2026-03-26T22:23:48.358176","MEAN_MOTION":2.00553557,"ECCENTRICITY":0.0024556,"INCLINATION":55.0345,"RA_OF_ASC_NODE":92.0545,"ARG_OF_PERICENTER":249.5065,"MEAN_ANOMALY":110.2628,"EPHEMERIS_TYPE":0,"CLASSIFICATION_TYPE":"U","NORAD_CAT_ID":67588,"ELEMENT_SET_NO":999,"REV_AT_EPOCH":42996,"BSTAR":0,"MEAN_MOTION_DOT":3.5e-7,"MEAN_MOTION_DDOT":0}]
